[{"OBJECT_NAME":"TOMORROW-S1","OBJECT_ID":"2024-149M","EPOCH":"2026-03-09T17:23:34.533600","MEAN_MOTION":15.31198363,"ECCENTRICITY":0.00018188,"INCLINATION":97.3791,"RA_OF_ASC_NODE":149.6044,"ARG_OF_PERICENTER":207.204,"MEAN_ANOMALY":152.9106,"EPHEMERIS_TYPE":0,"CLASSIFICATION_TYPE":"U","NORAD_CAT_ID":60479,"ELEMENT_SET_NO":999,"REV_AT_EPOCH":8686,"BSTAR":0.0002885603,"MEAN_MOTION_DOT":8.62e-5,"MEAN_MOTION_DDOT":0},{"OBJECT_NAME":"STARLINK-32208","OBJECT_ID":"2024-150R","EPOCH":"2026-03-09T22:26:08.066112","MEAN_MOTION":15.30171543,"ECCENTRICITY":0.00012618,"INCLINATION":53.1593,"RA_OF_ASC_NODE":306.2562,"ARG_OF_PERICENTER":101.6519,"MEAN_ANOMALY":258.4623,"EPHEMERIS_TYPE":0,"CLASSIFICATION_TYPE":"U","NORAD_CAT_ID":60598,"ELEMENT_SET_NO":999,"REV_AT_EPOCH":8807,"BSTAR":1.8879926e-5,"MEAN_MOTION_DOT":2.0e-6,"MEAN_MOTION_DDOT":0}]
